[{"OBJECT_NAME":"GRUS-1A","OBJECT_ID":"2018-111Q","EPOCH":"2026-03-09T23:18:05.956128","MEAN_MOTION":14.98893897,"ECCENTRICITY":0.00097781,"INCLINATION":97.4655,"RA_OF_ASC_NODE":300.3513,"ARG_OF_PERICENTER":128.8058,"MEAN_ANOMALY":231.404,"EPHEMERIS_TYPE":0,"CLASSIFICATION_TYPE":"U","NORAD_CAT_ID":43890,"ELEMENT_SET_NO":999,"REV_AT_EPOCH":39284,"BSTAR":0.00022419467,"MEAN_MOTION_DOT":2.655e-5,"MEAN_MOTION_DDOT":0},{"OBJECT_NAME":"STARLINK-4356","OBJECT_ID":"2022-084AM","EPOCH":"2026-03-09T17:38:05.654688","MEAN_MOTION":15.01251188,"ECCENTRICITY":0.00029592,"INCLINATION":97.6038,"RA_OF_ASC_NODE":130.2446,"ARG_OF_PERICENTER":155.5459,"MEAN_ANOMALY":204.5906,"EPHEMERIS_TYPE":0,"CLASSIFICATION_TYPE":"U","NORAD_CAT_ID":53224,"ELEMENT_SET_NO":999,"REV_AT_EPOCH":19932,"BSTAR":0.00012556272,"MEAN_MOTION_DOT":1.554e-5,"MEAN_MOTION_DDOT":0}]
